ONEWEB-0327             
1 49196U 21083L   24060.61746407  .00000291  00000+0  70590-3 0  9995
2 49196  87.9225 142.3787 0002290 112.2842 247.8533 13.18685479119509
ONEWEB-0328             
1 49197U 21083M   24060.58228135 -.00000143  00000+0 -42615-3 0  9990
2 49197  87.8964 127.1798 0001913 107.1398 252.9941 13.13468241120819
ONEWEB-0333             
1 49199U 21083P   24060.57752516  .00000000  00000+0 -34598-4 0  9999
2 49199  87.8975 127.1952 0002019  97.1536 262.9823 13.13469788120823
ONEWEB-0334             
1 49200U 21083Q   24060.55906171  .00000046  00000+0  80600-4 0  9992
2 49200  87.9121  81.3918 0002490  75.5594 284.5815 13.20772033127387
ONEWEB-0337             
1 49203U 21083T   24060.55200113  .00000269  00000+0  70258-3 0  9992
2 49203  87.8971 127.1849 0001830 106.2683 253.8647 13.13470942120822
